ESTCUBE 1               
1 39161U 13021C   22065.49715343  .00000556  00000+0  94822-4 0  9992
2 39161  97.9168 145.4027 0010462  37.2829 322.9136 14.72705540474319
FENGYUN 3C              
1 39260U 13052A   22065.66369029  .00000076  00000+0  59637-4 0  9993
2 39260  98.4678  98.9192 0010497 205.5635 154.5018 14.15903234437379
CASSIOPE                
1 39265U 13055A   22065.90329910  .00010377  00000+0  28571-3 0  9990
2 39265  80.9702  15.8710 0632118 261.5959  91.3135 14.36064187437605
ZACUBE-1 (TSHEPISOSAT)  
1 39417U 13066B   22065.88401473  .00001981  00000+0  24931-3 0  9990
2 39417  97.6255  42.1113 0058924  22.3780 337.9984 14.81901981447934
CINEMA-3 (KHUSAT-2)     
1 39426U 13066L   22065.84240697  .00000684  00000+0  11352-3 0  9997
2 39426  97.7891  10.3136 0103023 203.8634 155.7779 14.69911008444198
TRITON-1                
1 39427U 13066M   22065.73765409  .00001118  00000+0  18357-3 0  9994
2 39427  97.8052   6.0842 0111398 232.5659 126.5371 14.68590037443709
DELFI-N3XT              
1 39428U 13066N   22065.73149175  .00002044  00000+0  32546-3 0  9996
2 39428  97.8073   4.6035 0117171 246.0179 112.8724 14.68577407443451
GOMX-1                  
1 39430U 13066Q   22065.58782744  .00001026  00000+0  19190-3 0  9996
2 39430  97.8160 338.6520 0150461   9.6781 350.7277 14.59892789441289
BRITE-PL1 (LEM)         
1 39431U 13066R   22065.56754800  .00000402  00000+0  95216-4 0  9998
2 39431  97.7157 288.3394 0201586 187.0414 172.7940 14.47249391437684
ICUBE-1                 
1 39432U 13066S   22065.74727302  .00002031  00000+0  20711-3 0  9993
2 39432  97.4705  74.8885 0029898 246.3369 113.4712 14.91398968449390
HUMSAT-D                
1 39433U 13066T   22065.60731943  .00003103  00000+0  29695-3 0  9996
2 39433  97.4565  82.2001 0028754 221.4453 138.4587 14.93582311451047
VELOX-PII               
1 39438U 13066Y   22065.84884627  .00001597  00000+0  21632-3 0  9993
2 39438  97.6798  33.0864 0071417  71.1148 289.7790 14.78529249445849
FIRST-MOVE              
1 39439U 13066Z   22065.70104195  .00004801  00000+0  57095-3 0  9997
2 39439  97.6285  44.0088 0064525  19.2613 341.1019 14.83347471446819
CUBEBUG-2 (LO-74)       
1 39440U 13066AA  22065.87527106  .00001385  00000+0  19506-3 0  9997
2 39440  97.7139  27.8496 0080837 103.9399 257.0819 14.76593655445145
NEE-02 KRYSAOR          
1 39441U 13066AB  22065.86096739  .00000939  00000+0  13790-3 0  9993
2 39441  97.7247  25.0734 0082386 116.5818 244.3864 14.75437119444901
FUNCUBE-1 (AO-73)       
1 39444U 13066AE  22065.90477020  .00002713  00000+0  33153-3 0  9994
2 39444  97.6147  44.5262 0057566  11.3617 348.8882 14.82892240446321
HINCUBE                 
1 39445U 13066AF  22065.87590659  .00002699  00000+0  33122-3 0  9994
2 39445  97.6160  44.3292 0057687  13.5193 346.7551 14.82707823446260
UWE-3                   
1 39446U 13066AG  22065.87099983  .00001744  00000+0  23228-3 0  9995
2 39446  97.6732  34.4728 0070687  64.3071 296.5418 14.79142566445293
AIST-1 (RS-41)          
1 39492U 13078C   22065.86032668  .00000637  00000+0  66055-4 0  9991
2 39492  82.4223 334.7751 0021473  85.8970 274.4717 14.88230455444525
SPROUT                  
1 39770U 14029E   22065.58334722  .00003516  00000+0  37434-3 0  9999
2 39770  97.9306 182.0763 0009512  68.6131 291.6135 14.89552555422342
UNISAT-6                
1 40012U 14033C   22065.79610468  .00001275  00000+0  19329-3 0  9995
2 40012  97.6633 259.2472 0058803 130.6068 230.0279 14.74609532414858
BUGSAT-1 (TITA)         
1 40014U 14033E   22065.96434862  .00000971  00000+0  91007-4 0  9994
2 40014  98.1379  60.2511 0032052  18.5753 341.6630 14.96193485420812
DUCHIFAT-1              
1 40021U 14033M   22065.76218916  .00003416  00000+0  34190-3 0  9996
2 40021  98.0023  14.2366 0013434  25.9432 334.2457 14.92048636419389
NANOSATC-BR1            
1 40024U 14033Q   22065.75956920  .00002997  00000+0  30838-3 0  9990
2 40024  97.9763   8.1239 0012897  31.9246 328.2750 14.91029940418670
QB50P1                  
1 40025U 14033R   22065.72608011  .00002294  00000+0  24396-3 0  9995
2 40025  97.9531   2.4226 0013338  40.7924 319.4289 14.89931703418461
DTUSAT-2                
1 40030U 14033W   22065.74363395  .00002121  00000+0  22872-3 0  9992
2 40030  97.9319 358.1804 0012787  37.6946 322.5164 14.89440991418359
QB50P2                  
1 40032U 14033Y   22065.78085259  .00002119  00000+0  22873-3 0  9996
2 40032  97.9324 358.2291 0012720  38.6173 321.5952 14.89406345418852
POLYITAN-1              
1 40042U 14033AJ  22065.73789183  .00002813  00000+0  29824-3 0  9993
2 40042  97.9633   3.4976 0015439  32.2261 327.9897 14.89840997418351
TIGRISAT                
1 40043U 14033AK  22065.78481445  .00001008  00000+0  15341-3 0  9993
2 40043  97.6585 260.5774 0060589 128.2358 232.4327 14.74771819414798
AISAT                   
1 40054U 14034B   22065.69654234  .00002857  00000+0  39393-3 0  9990
2 40054  98.3480 233.1124 0011580 285.0378  74.9550 14.79008484414285
CANX-4                  
1 40055U 14034C   22065.65658331  .00000726  00000+0  11535-3 0  9990
2 40055  98.3395 219.3497 0013469 329.3565  30.6855 14.75232246413566
CANX-5                  
1 40056U 14034D   22065.86616387  .00000674  00000+0  10769-3 0  9999
2 40056  98.3395 219.5479 0013485 328.8698  31.1709 14.75225625413622
VELOX-I                 
1 40057U 14034E   22065.94264649  .00001315  00000+0  18721-3 0  9998
2 40057  98.3531 234.4945 0009766 301.0623  58.9662 14.78627517414329
METEOR-M 2              
1 40069U 14037A   22065.71020631  .00000001  00000+0  19588-4 0  9994
2 40069  98.4407  88.1586 0004518 259.1798 100.8861 14.20698921397272
DX1                     
1 40071U 14037C   22065.89789011  .00000454  00000+0  65101-4 0  9994
2 40071  98.4248 289.4527 0007320 290.4845  69.5581 14.81680342414156
UKUBE-1                 
1 40074U 14037F   22065.87791868  .00001078  00000+0  13354-3 0  9993
2 40074  98.3995 301.1251 0003234 264.1721  95.9144 14.84959268414847
FIREBIRD 3              
1 40377U 15003B   22065.80579755  .00014772  00000+0  48477-3 0  9994
2 40377  99.1130 268.0865 0108793  12.3276 348.0580 15.26124096392749
FIREBIRD 4              
1 40378U 15003C   22065.83716273  .00014823  00000+0  48524-3 0  9996
2 40378  99.1133 268.3133 0108781  11.8999 348.4766 15.26201008392757
GRIFEX                  
1 40379U 15003D   22065.82035825  .00009659  00000+0  36192-3 0  9992
2 40379  99.1185 255.2397 0121969  50.8758 310.3239 15.20779031392013
CP10 (EXOCUBE)          
1 40380U 15003E   22065.78538331  .00009691  00000+0  38662-3 0  9999
2 40380  99.1234 248.5037 0128590  73.2155 288.3135 15.18077661391579
DEORBITSAIL             
1 40719U 15032E   22065.61768065  .00002031  00000+0  28872-3 0  9991
2 40719  97.7974 307.3351 0015906 343.4902  16.5789 14.77874486358697
NUDT-PHONESAT           
1 40900U 15049B   22065.86104258  .00015141  00000+0  51355-3 0  9994
2 40900  97.4102  83.6707 0008351 297.3820 185.4751 15.30593544358890
XW-2A                   
1 40903U 15049E   22065.83804934  .00013302  00000+0  24597-3 0  9997
2 40903  97.1982 124.4610 0012843 130.1026 356.3380 15.49079609363351
XW-2C                   
1 40906U 15049H   22065.86699159  .00003920  00000+0  19662-3 0  9996
2 40906  97.4938  70.1918 0014374   3.7311 113.4830 15.17837170357354
XW-2D                   
1 40907U 15049J   22065.85611218  .00004439  00000+0  21928-3 0  9990
2 40907  97.4927  70.0893 0013487   0.2213  84.6798 15.18307504357391
LILACSAT-2              
1 40908U 15049K   22065.81299847  .00002093  00000+0  11512-3 0  9999
2 40908  97.5158  67.4740 0016147  18.4663  59.4356 15.15077206356946
XW-2E                   
1 40909U 15049L   22065.87708631  .00006483  00000+0  29166-3 0  9993
2 40909  97.4679  74.4516 0011934 343.3458 134.3458 15.21384079357802
XW-2F                   
1 40910U 15049M   22065.82852755  .00006355  00000+0  29016-3 0  9999
2 40910  97.4762  73.5158 0013113 343.4434  95.3511 15.20871501357575
XW-2B                   
1 40911U 15049N   22065.88014100  .00004291  00000+0  21266-3 0  9996
2 40911  97.4920  70.7444 0013517   1.2783 116.0817 15.18210276357284
KAITUO 1B               
1 40912U 15049P   22065.83255628  .00007197  00000+0  30252-3 0  9997
2 40912  97.4428  77.8865 0011886 308.8061 129.6990 15.23661731358112
TIANWANG 1A (TW-1A)     
1 40928U 15051D   22065.89445694  .00023362  00000+0  38941-3 0  9992
2 40928  97.0516  89.9783 0010700  55.5116  65.8119 15.51928041362296
LAPAN-A2                
1 40931U 15052B   22064.04118742  .00000904  00000+0  36777-4 0  9997
2 40931   5.9957 193.9028 0012611 128.3399 231.7783 14.76741507347885
LQSAT                   
1 40958U 15057A   22065.57989835  .00000201  00000+0  38439-4 0  9996
2 40958  97.7661 116.3273 0016837 294.9378  65.0092 14.73265412344844
ATHENOXAT 1             
1 41168U 15077C   22065.83439863  .00010033  00000+0  44232-3 0  9993
2 41168  14.9916 129.3584 0009660 235.7803 270.3843 15.18062654344672
GALASSIA                
1 41170U 15077E   22065.77226676  .00012644  00000+0  56684-3 0  9999
2 41170  14.9886 120.2045 0011448 267.3231  92.5780 15.17993793344586
VELOX-II                
1 41171U 15077F   22065.67204875  .00009105  00000+0  44859-3 0  9995
2 41171  14.9903 189.1977 0008343 115.8030 244.3152 15.14041869344001
CHUBUSAT-2              
1 41338U 16012B   22065.86683583  .00001723  00000+0  12523-3 0  9999
2 41338  31.0036 316.8682 0013643 216.0491 143.9225 15.00930485332052
CHUBUSAT-3              
1 41339U 16012C   22065.93274182  .00001274  00000+0  90568-4 0  9996
2 41339  31.0120 313.4380 0013258 225.2750 134.6846 15.01042832332065
HORYU-4                 
1 41340U 16012D   22065.82875658  .00003258  00000+0  23244-3 0  9991
2 41340  31.0047 294.1454 0013824 260.6023  99.3050 15.02557955332272
